WNISAT 1R               
1 42835U 17042L   26068.86192839  .00004802  00000+0  37840-3 0  9992
2 42835  97.4515 228.7079 0013301 131.3338 228.9034 15.01153186471607
STARLINK-6048           
1 56459U 23064M   26068.45160384  .00003945  00000+0  33823-3 0  9999
2 56459  70.0002 144.9282 0003190 269.7038  90.3755 14.98327677155204
